[{"OBJECT_NAME":"ONEWEB-0545","OBJECT_ID":"2022-166F","EPOCH":"2026-04-09T23:42:09.649152","MEAN_MOTION":13.21849779,"ECCENTRICITY":0.0001971,"INCLINATION":87.9186,"RA_OF_ASC_NODE":257.5693,"ARG_OF_PERICENTER":111.8789,"MEAN_ANOMALY":248.2555,"EPHEMERIS_TYPE":0,"CLASSIFICATION_TYPE":"U","NORAD_CAT_ID":54647,"ELEMENT_SET_NO":999,"REV_AT_EPOCH":16249,"BSTAR":-0.012225,"MEAN_MOTION_DOT":-5.035e-05,"MEAN_MOTION_DDOT":0.0},{"OBJECT_NAME":"ONEWEB-0580","OBJECT_ID":"2022-166G","EPOCH":"2026-04-10T04:32:51.273312","MEAN_MOTION":13.21779006,"ECCENTRICITY":0.0001672,"INCLINATION":87.9186,"RA_OF_ASC_NODE":257.5277,"ARG_OF_PERICENTER":107.9235,"MEAN_ANOMALY":252.2081,"EPHEMERIS_TYPE":0,"CLASSIFICATION_TYPE":"U","NORAD_CAT_ID":54648,"ELEMENT_SET_NO":999,"REV_AT_EPOCH":16256,"BSTAR":0.020014000000000004,"MEAN_MOTION_DOT":8.281e-05,"MEAN_MOTION_DDOT":0.0},{"OBJECT_NAME":"ONEWEB-0582","OBJECT_ID":"2022-166H","EPOCH":"2026-04-10T03:44:23.850240","MEAN_MOTION":13.21825234,"ECCENTRICITY":0.0001766,"INCLINATION":87.9189,"RA_OF_ASC_NODE":257.5269,"ARG_OF_PERICENTER":113.3233,"MEAN_ANOMALY":246.8087,"EPHEMERIS_TYPE":0,"CLASSIFICATION_TYPE":"U","NORAD_CAT_ID":54649,"ELEMENT_SET_NO":999,"REV_AT_EPOCH":16253,"BSTAR":0.00011279000000000001,"MEAN_MOTION_DOT":6e-07,"MEAN_MOTION_DDOT":0.0},{"OBJECT_NAME":"ONEWEB-0583","OBJECT_ID":"2022-166J","EPOCH":"2026-04-10T04:01:22.547712","MEAN_MOTION":13.21803803,"ECCENTRICITY":0.0001997,"INCLINATION":87.9193,"RA_OF_ASC_NODE":257.5478,"ARG_OF_PERICENTER":99.5034,"MEAN_ANOMALY":260.6326,"EPHEMERIS_TYPE":0,"CLASSIFICATION_TYPE":"U","NORAD_CAT_ID":54650,"ELEMENT_SET_NO":999,"REV_AT_EPOCH":16254,"BSTAR":0.0054097,"MEAN_MOTION_DOT":2.247e-05,"MEAN_MOTION_DDOT":0.0},{"OBJECT_NAME":"ONEWEB-0584","OBJECT_ID":"2022-166K","EPOCH":"2026-04-10T04:30:27.080352","MEAN_MOTION":13.21782046,"ECCENTRICITY":0.0001972,"INCLINATION":87.9191,"RA_OF_ASC_NODE":257.5307,"ARG_OF_PERICENTER":101.6029,"MEAN_ANOMALY":258.5327,"EPHEMERIS_TYPE":0,"CLASSIFICATION_TYPE":"U","NORAD_CAT_ID":54651,"ELEMENT_SET_NO":999,"REV_AT_EPOCH":16253,"BSTAR":0.013309000000000001,"MEAN_MOTION_DOT":5.51e-05,"MEAN_MOTION_DDOT":0.0},{"OBJECT_NAME":"ONEWEB-0585","OBJECT_ID":"2022-166L","EPOCH":"2026-04-10T03:15:19.511136","MEAN_MOTION":13.21864149,"ECCENTRICITY":0.0002068,"INCLINATION":87.9192,"RA_OF_ASC_NODE":257.5256,"ARG_OF_PERICENTER":92.509,"MEAN_ANOMALY":267.6281,"EPHEMERIS_TYPE":0,"CLASSIFICATION_TYPE":"U","NORAD_CAT_ID":54652,"ELEMENT_SET_NO":999,"REV_AT_EPOCH":16253,"BSTAR":-0.011133,"MEAN_MOTION_DOT":-4.585e-05,"MEAN_MOTION_DDOT":0.0},{"OBJECT_NAME":"ONEWEB-0586","OBJECT_ID":"2022-166M","EPOCH":"2026-04-10T03:34:42.449952","MEAN_MOTION":13.21842149,"ECCENTRICITY":0.0001731,"INCLINATION":87.919,"RA_OF_ASC_NODE":257.5492,"ARG_OF_PERICENTER":106.344,"MEAN_ANOMALY":253.7885,"EPHEMERIS_TYPE":0,"CLASSIFICATION_TYPE":"U","NORAD_CAT_ID":54653,"ELEMENT_SET_NO":999,"REV_AT_EPOCH":16253,"BSTAR":-0.0050159,"MEAN_MOTION_DOT":-2.059e-05,"MEAN_MOTION_DDOT":0.0},{"OBJECT_NAME":"ONEWEB-0587","OBJECT_ID":"2022-166N","EPOCH":"2026-04-10T03:49:15.235968","MEAN_MOTION":13.21820978,"ECCENTRICITY":0.0001889,"INCLINATION":87.9199,"RA_OF_ASC_NODE":257.5141,"ARG_OF_PERICENTER":86.9365,"MEAN_ANOMALY":273.1985,"EPHEMERIS_TYPE":0,"CLASSIFICATION_TYPE":"U","NORAD_CAT_ID":54654,"ELEMENT_SET_NO":999,"REV_AT_EPOCH":16269,"BSTAR":0.00022521,"MEAN_MOTION_DOT":1.06e-06,"MEAN_MOTION_DDOT":0.0},{"OBJECT_NAME":"ONEWEB-0589","OBJECT_ID":"2022-166P","EPOCH":"2026-04-10T03:29:51.839232","MEAN_MOTION":13.21841108,"ECCENTRICITY":0.0001771,"INCLINATION":87.9178,"RA_OF_ASC_NODE":257.5382,"ARG_OF_PERICENTER":124.5949,"MEAN_ANOMALY":235.5352,"EPHEMERIS_TYPE":0,"CLASSIFICATION_TYPE":"U","NORAD_CAT_ID":54655,"ELEMENT_SET_NO":999,"REV_AT_EPOCH":16255,"BSTAR":-0.0076784,"MEAN_MOTION_DOT":-3.158e-05,"MEAN_MOTION_DDOT":0.0},{"OBJECT_NAME":"ONEWEB-0590","OBJECT_ID":"2022-166Q","EPOCH":"2026-04-10T04:06:00.880128","MEAN_MOTION":13.21803023,"ECCENTRICITY":0.0001448,"INCLINATION":87.9191,"RA_OF_ASC_NODE":257.5161,"ARG_OF_PERICENTER":92.0712,"MEAN_ANOMALY":268.0588,"EPHEMERIS_TYPE":0,"CLASSIFICATION_TYPE":"U","NORAD_CAT_ID":54656,"ELEMENT_SET_NO":999,"REV_AT_EPOCH":16254,"BSTAR":0.0081818,"MEAN_MOTION_DOT":3.392e-05,"MEAN_MOTION_DDOT":0.0},{"OBJECT_NAME":"ONEWEB-0591","OBJECT_ID":"2022-166R","EPOCH":"2026-04-10T04:23:10.139136","MEAN_MOTION":13.21787023,"ECCENTRICITY":0.0001833,"INCLINATION":87.9188,"RA_OF_ASC_NODE":257.5333,"ARG_OF_PERICENTER":98.1928,"MEAN_ANOMALY":261.9414,"EPHEMERIS_TYPE":0,"CLASSIFICATION_TYPE":"U","NORAD_CAT_ID":54657,"ELEMENT_SET_NO":999,"REV_AT_EPOCH":16257,"BSTAR":0.013259000000000002,"MEAN_MOTION_DOT":5.489e-05,"MEAN_MOTION_DDOT":0.0},{"OBJECT_NAME":"ONEWEB-0592","OBJECT_ID":"2022-166S","EPOCH":"2026-04-10T04:28:01.222464","MEAN_MOTION":13.21777038,"ECCENTRICITY":0.0001945,"INCLINATION":87.9193,"RA_OF_ASC_NODE":257.5057,"ARG_OF_PERICENTER":101.4659,"MEAN_ANOMALY":258.6693,"EPHEMERIS_TYPE":0,"CLASSIFICATION_TYPE":"U","NORAD_CAT_ID":54658,"ELEMENT_SET_NO":999,"REV_AT_EPOCH":16245,"BSTAR":0.0093524,"MEAN_MOTION_DOT":3.874e-05,"MEAN_MOTION_DDOT":0.0},{"OBJECT_NAME":"ONEWEB-0593","OBJECT_ID":"2022-166T","EPOCH":"2026-04-09T23:32:28.591008","MEAN_MOTION":13.21870545,"ECCENTRICITY":0.0001641,"INCLINATION":87.9183,"RA_OF_ASC_NODE":257.5629,"ARG_OF_PERICENTER":103.7045,"MEAN_ANOMALY":256.4272,"EPHEMERIS_TYPE":0,"CLASSIFICATION_TYPE":"U","NORAD_CAT_ID":54659,"ELEMENT_SET_NO":999,"REV_AT_EPOCH":16253,"BSTAR":-0.015619000000000001,"MEAN_MOTION_DOT":-6.437e-05,"MEAN_MOTION_DDOT":0.0},{"OBJECT_NAME":"ONEWEB-0594","OBJECT_ID":"2022-166U","EPOCH":"2026-04-10T03:39:32.410080","MEAN_MOTION":13.21833681,"ECCENTRICITY":0.0001826,"INCLINATION":87.9187,"RA_OF_ASC_NODE":257.5461,"ARG_OF_PERICENTER":96.1207,"MEAN_ANOMALY":264.0135,"EPHEMERIS_TYPE":0,"CLASSIFICATION_TYPE":"U","NORAD_CAT_ID":54660,"ELEMENT_SET_NO":999,"REV_AT_EPOCH":16257,"BSTAR":-0.0027760000000000003,"MEAN_MOTION_DOT":-1.133e-05,"MEAN_MOTION_DDOT":0.0},{"OBJECT_NAME":"ONEWEB-0595","OBJECT_ID":"2022-166V","EPOCH":"2026-04-10T03:05:37.987296","MEAN_MOTION":13.2187525,"ECCENTRICITY":0.0001441,"INCLINATION":87.9201,"RA_OF_ASC_NODE":257.5258,"ARG_OF_PERICENTER":95.7266,"MEAN_ANOMALY":264.4033,"EPHEMERIS_TYPE":0,"CLASSIFICATION_TYPE":"U","NORAD_CAT_ID":54661,"ELEMENT_SET_NO":999,"REV_AT_EPOCH":16254,"BSTAR":-0.017082,"MEAN_MOTION_DOT":-7.041e-05,"MEAN_MOTION_DDOT":0.0},{"OBJECT_NAME":"ONEWEB-0596","OBJECT_ID":"2022-166W","EPOCH":"2026-04-10T04:18:19.564704","MEAN_MOTION":13.2179128,"ECCENTRICITY":0.0001695,"INCLINATION":87.9191,"RA_OF_ASC_NODE":257.5313,"ARG_OF_PERICENTER":95.5231,"MEAN_ANOMALY":264.6097,"EPHEMERIS_TYPE":0,"CLASSIFICATION_TYPE":"U","NORAD_CAT_ID":54662,"ELEMENT_SET_NO":999,"REV_AT_EPOCH":16255,"BSTAR":0.012032000000000001,"MEAN_MOTION_DOT":4.982e-05,"MEAN_MOTION_DDOT":0.0}]