ONEWEB-0545             
1 54647U 22166F   26099.98761168 -.00005035  00000+0 -12225-1 0  9992
2 54647  87.9186 257.5693 0001971 111.8789 248.2555 13.21849779162491
ONEWEB-0580             
1 54648U 22166G   26100.18948233  .00008281  00000+0  20014-1 0  9997
2 54648  87.9186 257.5277 0001672 107.9235 252.2081 13.21779006162562
ONEWEB-0582             
1 54649U 22166H   26100.15583160  .00000060  00000+0  11279-3 0  9991
2 54649  87.9189 257.5269 0001766 113.3233 246.8087 13.21825234162537
ONEWEB-0583             
1 54650U 22166J   26100.16762208  .00002247  00000+0  54097-2 0  9999
2 54650  87.9193 257.5478 0001997  99.5034 260.6326 13.21803803162545
ONEWEB-0584             
1 54651U 22166K   26100.18781343  .00005510  00000+0  13309-1 0  9999
2 54651  87.9191 257.5307 0001972 101.6029 258.5327 13.21782046162538
ONEWEB-0585             
1 54652U 22166L   26100.13564249 -.00004585  00000+0 -11133-1 0  9995
2 54652  87.9192 257.5256 0002068  92.5090 267.6281 13.21864149162531
ONEWEB-0586             
1 54653U 22166M   26100.14910243 -.00002059  00000+0 -50159-2 0  9992
2 54653  87.9190 257.5492 0001731 106.3440 253.7885 13.21842149162533
ONEWEB-0587             
1 54654U 22166N   26100.15920412  .00000106  00000+0  22521-3 0  9995
2 54654  87.9199 257.5141 0001889  86.9365 273.1985 13.21820978162697
ONEWEB-0589             
1 54655U 22166P   26100.14573888 -.00003158  00000+0 -76784-2 0  9997
2 54655  87.9178 257.5382 0001771 124.5949 235.5352 13.21841108162552
ONEWEB-0590             
1 54656U 22166Q   26100.17084352  .00003392  00000+0  81818-2 0  9996
2 54656  87.9191 257.5161 0001448  92.0712 268.0588 13.21803023162546
ONEWEB-0591             
1 54657U 22166R   26100.18275624  .00005489  00000+0  13259-1 0  9994
2 54657  87.9188 257.5333 0001833  98.1928 261.9414 13.21787023162572
ONEWEB-0592             
1 54658U 22166S   26100.18612526  .00003874  00000+0  93524-2 0  9991
2 54658  87.9193 257.5057 0001945 101.4659 258.6693 13.21777038162459
ONEWEB-0593             
1 54659U 22166T   26099.98088647 -.00006437  00000+0 -15619-1 0  9996
2 54659  87.9183 257.5629 0001641 103.7045 256.4272 13.21870545162536
ONEWEB-0594             
1 54660U 22166U   26100.15245845 -.00001133  00000+0 -27760-2 0  9994
2 54660  87.9187 257.5461 0001826  96.1207 264.0135 13.21833681162573
ONEWEB-0595             
1 54661U 22166V   26100.12891189 -.00007041  00000+0 -17082-1 0  9999
2 54661  87.9201 257.5258 0001441  95.7266 264.4033 13.21875250162544
ONEWEB-0596             
1 54662U 22166W   26100.17939311  .00004982  00000+0  12032-1 0  9994
2 54662  87.9191 257.5313 0001695  95.5231 264.6097 13.21791280162559
